STARLINK-35140          
1 65501U 25198K   26164.24676947  .00032839  00000+0  97770-3 0  9993
2 65501  53.1583 185.4902 0001280  64.6875 295.4260 15.34435947 43279
STARLINK-35114          
1 65502U 25198L   26164.21949686  .00029969  00000+0  89414-3 0  9990
2 65502  53.1569 186.0303 0001747  88.0581 272.0622 15.34414918 43265
STARLINK-35126          
1 65503U 25198M   26164.27742315  .00017163  00000+0  59011-3 0  9990
2 65503  53.1571 187.0964 0001142  86.1474 273.9657 15.30207333 43256
STARLINK-35182          
1 65504U 25198N   26164.22369538  .00003465  00000+0  11373-3 0  9997
2 65504  53.1568 186.0548 0001339  98.7597 261.3558 15.34370692 43268
STARLINK-35072          
1 65505U 25198P   26164.32030962  .00020673  00000+0  62103-3 0  9992
2 65505  53.1586 185.2350 0001585  85.2130 274.9053 15.34413031 43285
STARLINK-35184          
1 65506U 25198Q   26164.26991049  .00013500  00000+0  40981-3 0  9999
2 65506  53.1577 185.6354 0001081 101.6411 258.4713 15.34412760 43277
STARLINK-35163          
1 65507U 25198R   26164.22477640  .00020354  00000+0  69730-3 0  9990
2 65507  53.1559 187.4767 0001132  77.4877 282.6250 15.30207645 43241
STARLINK-35119          
1 65508U 25198S   26164.23001367  .00029522  00000+0  88099-3 0  9996
2 65508  53.1574 186.0993 0001406  93.3846 266.7318 15.34416010 43264
STARLINK-35168          
1 65509U 25198T   26164.27830458  .00005500  00000+0  17391-3 0  9999
2 65509  53.1564 185.6838 0001637 125.9637 234.1518 15.34378638 43278
STARLINK-35122          
1 65510U 25198U   26164.31820936  .00020928  00000+0  62871-3 0  9990
2 65510  53.1581 185.2211 0001430  87.8436 272.2730 15.34404506 43288
STARLINK-35124          
1 65511U 25198V   26164.30558130  .00024056  00000+0  72071-3 0  9993
2 65511  53.1576 185.1467 0001148  93.8859 266.2275 15.34404743 43276
STARLINK-35149          
1 65512U 25198W   26164.27620903  .00024062  00000+0  72126-3 0  9996
2 65512  53.1571 185.6682 0001176  94.9290 265.1847 15.34388705 43270
STARLINK-35019          
1 65513U 25198X   26164.28252884  .00019633  00000+0  59058-3 0  9994
2 65513  53.1576 185.7096 0001137  77.3252 282.7878 15.34405695 43273
STARLINK-35026          
1 65514U 25198Y   26164.22601525  .00017303  00000+0  53608-3 0  9996
2 65514  53.1568 187.4808 0001260  80.8740 279.2405 15.33557611 43242
STARLINK-35241          
1 65515U 25198Z   26164.28164542  .00013102  00000+0  45376-3 0  9992
2 65515  53.1566 187.1194 0001101  89.9167 270.1960 15.30195475 43253
STARLINK-35216          
1 65516U 25198AA  26164.22266147  .00017550  00000+0  60306-3 0  9992
2 65516  53.1556 187.4600 0001248  91.1921 268.9223 15.30210245 43242
STARLINK-35228          
1 65517U 25198AB  26164.24884821  .00020016  00000+0  60138-3 0  9994
2 65517  53.1585 185.4942 0001384 103.0182 257.0975 15.34430841 43271
STARLINK-35232          
1 65518U 25198AC  26164.23212002  .00025184  00000+0  75357-3 0  9990
2 65518  53.1575 186.1004 0001090  80.8897 279.2229 15.34416910 43265
STARLINK-35164          
1 65519U 25198AD  26164.22580637  .00020002  00000+0  60156-3 0  9997
2 65519  53.1566 186.0595 0001210  88.9077 271.2064 15.34398979 43266
STARLINK-35112          
1 65520U 25200A   26164.10007940  .00004113  00000+0  28882-3 0  9996
2 65520  97.3664 232.9300 0001861 108.7769 251.3660 15.05661105 43480
STARLINK-35187          
1 65521U 25200B   26164.19699790  .00006758  00000+0  47179-3 0  9993
2 65521  97.3700 233.1157 0000599  77.2577 282.8718 15.05662576 43508
STARLINK-35188          
1 65522U 25200C   26164.24685169 -.00000845  00000+0 -54546-4 0  9995
2 65522  97.3661 233.1966 0003842 128.1418 232.0156 15.05655502 43512
STARLINK-35078          
1 65523U 25200D   26164.14992542  .00005283  00000+0  36976-3 0  9996
2 65523  97.3654 233.0193 0001153 124.7324 235.4012 15.05660719 43498
STARLINK-35055          
1 65524U 25200E   26164.20808107 -.00004287  00000+0 -29340-3 0  9999
2 65524  97.3714 233.0991 0001033 104.2186 255.9156 15.05642188 43506
STARLINK-35057          
1 65525U 25200F   26164.10838560  .00003573  00000+0  25141-3 0  9995
2 65525  97.3671 232.9213 0001676 111.2852 248.8554 15.05659830 43487
STARLINK-34674          
1 65526U 25200G   26164.18869581  .00006268  00000+0  43801-3 0  9998
2 65526  97.3655 233.1264 0002347  94.1387 266.0108 15.05651935 43516
STARLINK-35067          
1 65527U 25200H   26164.16100168  .00002529  00000+0  17915-3 0  9999
2 65527  97.3658 233.0041 0001954 117.2689 242.8738 15.05656649 43492
STARLINK-35063          
1 65528U 25200J   26164.24408465  .00001536  00000+0  11037-3 0  9996
2 65528  97.3645 233.2049 0002426 118.5355 241.6117 15.05655976 43511
STARLINK-35077          
1 65529U 25200K   26164.28837902  .00005683  00000+0  39744-3 0  9995
2 65529  97.3642 233.1397 0002080 126.9443 233.1975 15.05659969 43515
STARLINK-35152          
1 65530U 25200L   26164.20254366 -.00003021  00000+0 -20555-3 0  9992
2 65530  97.3706 233.1077 0000576 227.5505 132.5674 15.05640223 43508
STARLINK-35064          
1 65531U 25200M   26164.14716047 -.00005322  00000+0 -36524-3 0  9994
2 65531  97.3682 233.0262 0001411 121.5090 238.6275 15.05643311 43492
STARLINK-35170          
1 65532U 25200N   26164.18593146  .00001848  00000+0  13204-3 0  9999
2 65532  97.3649 233.1269 0001711  93.1721 266.9702 15.05656833 43506
STARLINK-35172          
1 65533U 25200P   26164.09731291  .00005976  00000+0  41765-3 0  9994
2 65533  97.3658 232.9388 0002228  88.6120 271.5363 15.05661129 43488
STARLINK-35125          
1 65534U 25200Q   26164.10561701  .00005236  00000+0  36652-3 0  9992
2 65534  97.3657 232.9265 0001744 103.0704 257.0718 15.05661927 43483
STARLINK-35133          
1 65535U 25200R   26164.25792364  .00000126  00000+0  12733-4 0  9998
2 65535  97.3658 233.1835 0002527 136.0339 224.1090 15.05657071 43518
STARLINK-35044          
1 65536U 25200S   26164.14438857  .00004027  00000+0  28283-3 0  9991
2 65536  97.3662 233.0284 0001602 121.8965 238.2419 15.05658148 43495
STARLINK-35136          
1 65537U 25200T   26164.15823045  .00003810  00000+0  26779-3 0  9997
2 65537  97.3652 233.0089 0001709 143.4601 216.6744 15.05660876 43406
STARLINK-35144          
1 65538U 25200U   26164.15269359  .00005335  00000+0  37331-3 0  9990
2 65538  97.3658 233.0166 0001276  85.5403 274.5970 15.05662949 43490
STARLINK-35110          
1 65539U 25200V   26164.18316177  .00000411  00000+0  32443-4 0  9995
2 65539  97.3668 233.1318 0002037 155.7854 204.3469 15.05648871 43502
STARLINK-35052          
1 65540U 25200W   26164.19977502 -.00001587  00000+0 -10602-3 0  9992
2 65540  97.3690 233.1126 0001337 101.1995 258.9383 15.05645780 43426
STARLINK-35087          
1 65541U 25200X   26164.20531358  .00000659  00000+0  49680-4 0  9996
2 65541  97.3691 233.1027 0001030  86.6737 273.4608 15.05648036 43507
STARLINK-35100          
1 65542U 25200Y   26164.10287210 -.00023262  00000+0 -16162-2 0  9995
2 65542  97.3671 232.9313 0001542 127.9832 232.1535 15.05588082 43486
STARLINK-35105          
1 65543U 25200Z   26164.19422385 -.00013327  00000+0 -92155-3 0  9997
2 65543  97.3692 233.1169 0001461 107.4049 252.7338 15.05644678 43501
YAOGAN-40 03A           
1 65544U 25199A   26164.15114328  .00000288  00000+0  11126-3 0  9995
2 65544  85.9890  43.0005 0015795  83.2812 277.0176 14.26485711 39841
YAOGAN-40 03B           
1 65545U 25199B   26164.14359505  .00000115  00000+0  52103-4 0  9993
2 65545  85.9910  45.9073 0002360  93.7140 266.4313 14.12448783 39461
YAOGAN-40 03C           
1 65546U 25199C   26164.21460097  .00000157  00000+0  74935-4 0  9994
2 65546  85.9910  45.8733 0002349  91.9145 268.2307 14.12448277 39502
GEESAT-5 01             
1 65550U 25201A   26163.88906406  .00001825  00000+0  24285-3 0  9999
2 65550  49.9921  59.5623 0003593  28.0593 332.0538 14.84171003 41169
GEESAT-5 02             
1 65551U 25201B   26164.01580938  .00001796  00000+0  23971-3 0  9992
2 65551  49.9862  58.7666 0008246 311.1714  48.8512 14.84130838 41179
GEESAT-5 03             
1 65552U 25201C   26164.00862982  .00001769  00000+0  23626-3 0  9991
2 65552  49.9875  58.7418 0010773 247.4792 112.5006 14.84169693 41172
GEESAT-5 04             
1 65553U 25201D   26163.93030573  .00001263  00000+0  17629-3 0  9991
2 65553  49.9871  59.6738 0008152 255.4422 104.5613 14.84198177 41153
GEESAT-5 05             
1 65554U 25201E   26163.93382938  .00001622  00000+0  21908-3 0  9991
2 65554  49.9830  58.8688 0010931 264.2851  95.6841 14.84138545 41163
GEESAT-5 06             
1 65555U 25201F   26164.26306672  .00001603  00000+0  21674-3 0  9999
2 65555  49.9919  57.5137 0013965 308.6030  51.3657 14.84142910 41209
GEESAT-5 07             
1 65556U 25201G   26163.98582106  .00001772  00000+0  23687-3 0  9999
2 65556  49.9893  58.6262 0013192 297.8473  62.1128 14.84129238 41171
GEESAT-5 08             
1 65557U 25201H   26163.95258781  .00001672  00000+0  23172-3 0  9994
2 65557  49.9801  55.2949 0001997 299.6871  60.3867 14.82851707 41225
GEESAT-5 09             
1 65558U 25201J   26163.97899607  .00001779  00000+0  23750-3 0  9995
2 65558  49.9811  58.3918 0008523 253.0287 106.9717 14.84159234 41177
GEESAT-5 10             
1 65559U 25201K   26163.97107993  .00001792  00000+0  23921-3 0  9991
2 65559  49.9831  58.3737 0007550 271.3362  88.6711 14.84140958 41178
GEESAT-5 11             
1 65560U 25201L   26163.96391171  .00001807  00000+0  24079-3 0  9997
2 65560  49.9878  58.4623 0008889 327.0639  32.9745 14.84167220 41190
YAOGAN-45               
1 65563U 25202A   26161.10282483  .00000004  00000+0  00000+0 0  9992
2 65563  19.9417 222.1349 0007877 228.7528 131.2228  5.31206589 11712
PRAETORIAN SDA_602      
1 65565U 25203A   26164.04885852  .00000057  00000+0  40005-4 0  9992
2 65565  81.3033  14.6026 0005556 195.6154 164.4833 13.84342351 38125
